STARLINK-1680
1 46558U 20070AC  26061.00002315  .00075510  00000+0  52042-3 0  9996
2 46558  53.0433 147.8260 0006369 339.9065 223.8184 15.73931045  5961
